0 SIRIUS 2
1 26483U 00051A   13282.39067965  .00000119  00000-0  00000+0 0  8708
2 26483 064.1092 122.3265 2677488 270.2138 029.8490 01.00277401 47963
0 SIRIUS 2
1 26483U 00051A   13283.47018073  .00000000  00000-0  10000-3 0  8720
2 26483 064.1084 122.3149 2677102 270.2010 059.5729 01.00283553 47989
0 SIRIUS 2
1 26483U 00051A   13284.41281946  .00000114  00000-0  00000+0 0  8716
2 26483 064.1102 122.3093 2678178 270.1845 039.8747 01.00277264 47980
0 SIRIUS 2
1 26483U 00051A   13286.66450294  .00000124  00000-0  00000+0 0  8721
2 26483 064.1111 122.2902 2678929 270.1517 132.7682 01.00277188 48019
0 SIRIUS 2
1 26483U 00051A   13289.45335420  .00000000  00000-0  10000-3 0  8733
2 26483 064.1099 122.2603 2679724 270.1210 059.6123 01.00283215 47997
0 SIRIUS 2
1 26483U 00051A   13290.59603325  .00000116  00000-0  00000+0 0  8735
2 26483 064.1125 122.2566 2680222 270.0950 112.1115 01.00277109 48059
0 SIRIUS 2
1 26483U 00051A   13293.33741049  .00000093  00000-0  00000+0 0  8741
2 26483 064.1135 122.2333 2681039 270.0533 021.7940 01.00276954 48076
0 SIRIUS 2
1 26483U 00051A   13295.53014491  .00000093  00000-0  00000+0 0  8750
2 26483 064.1145 122.2154 2681981 270.0267 093.4391 01.00283998 48104
